STARLINK-4588           
1 53641U 22104BF  25274.09404470 -.00000762  00000+0 -29825-4 0  9992
2 53641  53.2186 220.4359 0001499 105.5380 254.5778 15.08827856172138
STARLINK-4622           
1 53648U 22105A   25273.67928542  .00000532  00000+0  45921-4 0  9992
2 53648  97.6031 153.5654 0003053  75.3665 284.7898 15.01263631169231
STARLINK-4386           
1 53649U 22105B   25274.16667823  .00038029  00000+0  26866-2 0  9997
2 53649  97.6033 154.0444 0002135  89.7836  53.6394 15.04791701  5810
STARLINK-4380           
1 53650U 22105C   25273.67558478  .00001804  00000+0  14491-3 0  9992
2 53650  97.6012 153.5602 0003648  62.3704 297.7890 15.01270241169226
STARLINK-4388           
1 53651U 22105D   25273.67373238 -.00000086  00000+0 -21582-5 0  9996
2 53651  97.6007 153.5601 0003950  54.5363 305.6229 15.01262261169228
STARLINK-4374           
1 53652U 22105E   25273.67188385 -.00000551  00000+0 -38350-4 0  9991
2 53652  97.5995 153.5571 0003802  50.0561 310.0997 15.01258067169228
STARLINK-4390           
1 53653U 22105F   25274.09032076  .00002382  00000+0  18988-3 0  9990
2 53653  97.6039 153.9205 0001968  69.0143 291.1292 15.01267500169289
STARLINK-4420           
1 53654U 22105G   25274.19954525  .00000256  00000+0  24432-4 0  9994
2 53654  97.6000 154.0732 0002934  57.4903 302.6604 15.01260006169306
STARLINK-4470           
1 53655U 22105H   25273.67002977 -.00001491  00000+0 -11153-3 0  9991
2 53655  97.5997 153.5550 0002922  73.0913 287.0632 15.01268518169229
STARLINK-4466           
1 53656U 22105J   25274.19399160  .00005856  00000+0  45987-3 0  9992
2 53656  97.5988 154.0705 0002492  98.5843 261.5664 15.01279067169306
STARLINK-4469           
1 53657U 22105K   25274.16667823  .00457124  00000+0  55145-2 0  9999
2 53657  97.6557 158.0425 0001304  81.2005 207.8767 15.59230429  5918
STARLINK-4452           
1 53658U 22105L   25274.19198300  .00126887  00000+0  91045-2 0  9990
2 53658  97.6023 154.0744 0000716 250.3766 109.7382 15.03693253169300
STARLINK-4463           
1 53659U 22105M   25274.19793867 -.00001270  00000+0 -94311-4 0  9991
2 53659  97.5984 154.0700 0004427  67.6206 292.5487 15.01269096169308
STARLINK-4473           
1 53660U 22105N   25274.12363108 -.00000630  00000+0 -44509-4 0  9990
2 53660  97.6012 153.9955 0002301  97.5693 262.5792 15.01267236169292
STARLINK-4472           
1 53661U 22105P   25274.12574396  .00000357  00000+0  32354-4 0  9993
2 53661  97.6003 154.0021 0008149 134.8384 225.3504 15.01258847169293
STARLINK-4357           
1 53662U 22105Q   25274.16667823  .00025206  00000+0  19598-2 0  9999
2 53662  97.6009 154.0381 0002100  91.6016 159.6945 15.01263892  5712
STARLINK-4457           
1 53663U 22105R   25274.18930718  .00129441  00000+0  94064-2 0  9995
2 53663  97.6032 154.0677 0002259  77.0165 283.1313 15.03199448169300
STARLINK-4471           
1 53664U 22105S   25274.18311771  .00001356  00000+0  11008-3 0  9990
2 53664  97.6008 154.0556 0001463  85.1155 275.0236 15.01261683169308
STARLINK-4334           
1 53665U 22105T   25273.65151469 -.00000537  00000+0 -37251-4 0  9999
2 53665  97.6005 153.5448 0001168  73.8600 286.2753 15.01250986169224
STARLINK-4406           
1 53667U 22105V   25273.90761970 -.00000401  00000+0 -24111-4 0  9994
2 53667  97.6010 153.8172 0001778  85.8666 274.2763 15.04830416169268
STARLINK-4458           
1 53668U 22105W   25274.18102826 -.00000077  00000+0 -14854-5 0  9998
2 53668  97.6012 154.0218 0000969  90.1145 270.0191 15.01258613169301
STARLINK-4464           
1 53669U 22105X   25274.18658470  .00001680  00000+0  13527-3 0  9993
2 53669  97.6006 154.0481 0001530  53.3081 306.8284 15.01272067169302
STARLINK-4459           
1 53670U 22105Y   25274.16667823  .00046418  00000+0  34378-2 0  9999
2 53670  97.6013 154.0292 0001922 110.3144 195.6458 15.02957185  5769
STARLINK-4440           
1 53671U 22105Z   25274.17756943  .00000055  00000+0  88381-5 0  9996
2 53671  97.6011 154.0489 0001753  84.3796 275.7628 15.01260868169305
STARLINK-4428           
1 53672U 22105AA  25274.09770494  .00001516  00000+0  12257-3 0  9995
2 53672  97.6020 153.9903 0001529  88.4908 271.6492 15.01257677169292
STARLINK-4456           
1 53673U 22105AB  25273.80173097 -.00000183  00000+0 -97220-5 0  9996
2 53673  97.6005 153.6839 0004632  59.0141 301.1538 15.01258769169240
STARLINK-4620           
1 53674U 22105AC  25273.90516197 -.00000096  00000+0 -29479-5 0  9994
2 53674  97.6015 153.7767 0001878 118.2907 241.8507 15.01259819169265
STARLINK-4617           
1 53675U 22105AD  25274.16667823  .00014025  00000+0  99573-3 0  9992
2 53675  97.6042 154.0542 0002036 111.7690 279.5132 15.04835115  5819
STARLINK-4621           
1 53676U 22105AE  25274.10141409 -.00000209  00000+0 -11732-4 0  9997
2 53676  97.6022 153.9698 0001870 167.1277 192.9996 15.01260059169294
STARLINK-4579           
1 53677U 22105AF  25273.90701410  .00000448  00000+0  39440-4 0  9998
2 53677  97.6012 153.7800 0001746 115.4685 244.6720 15.01257429169262
STARLINK-4632           
1 53679U 22105AH  25274.08905687  .00070123  00000+0  48746-2 0  9996
2 53679  97.6026 153.9919 0002036 115.5533 244.5904 15.05199936169296
STARLINK-4630           
1 53680U 22105AJ  25274.09585182  .00002854  00000+0  22660-3 0  9997
2 53680  97.6035 153.9676 0001794  89.1632 270.9798 15.01272827169295
STARLINK-4424           
1 53681U 22105AK  25274.09400963  .00000720  00000+0  60624-4 0  9994
2 53681  97.6049 153.9821 0001907  88.6643 271.4800 15.01262214169294
STARLINK-4438           
1 53682U 22105AL  25273.95144727  .00000955  00000+0  78875-4 0  9999
2 53682  97.6038 153.8472 0002647  86.3682 273.7845 15.01262626169273
STARLINK-4625           
1 53683U 22105AM  25273.76654819  .00000070  00000+0  10001-4 0  9992
2 53683  97.6020 153.6376 0001291  87.8155 272.3217 15.01259478169247
STARLINK-4624           
1 53684U 22105AN  25273.64965434 -.00001512  00000+0 -11326-3 0  9992
2 53684  97.6009 153.5939 0000764  88.2416 271.8895 15.01254971169203
STARLINK-4626           
1 53685U 22105AP  25273.62583738  .00000417  00000+0  36978-4 0  9996
2 53685  97.6051 153.5140 0001643  89.2595 270.8817 15.01262317169229
STARLINK-4467           
1 53686U 22105AQ  25274.19769022 -.00001231  00000+0 -91327-4 0  9998
2 53686  97.5997 154.1302 0002253  65.2972 294.8486 15.01252158169316
STARLINK-4569           
1 53687U 22105AR  25274.09215867 -.00000349  00000+0 -22653-4 0  9996
2 53687  97.6046 153.9669 0001980  87.9974 272.1477 15.01271430169295
STARLINK-4571           
1 53688U 22105AS  25273.95330220  .00000724  00000+0  60886-4 0  9997
2 53688  97.6033 153.8302 0002639  84.4671 275.6854 15.01259891169275
STARLINK-4570           
1 53690U 22105AU  25273.90886579  .00002285  00000+0  18231-3 0  9998
2 53690  97.6018 153.7258 0001279 160.0610 200.0664 15.01269012169269
STARLINK-4560           
1 53691U 22105AV  25273.95515301  .00000463  00000+0  40556-4 0  9998
2 53691  97.6033 153.8255 0002170  88.9641 271.1832 15.01262905169279
STARLINK-4572           
1 53692U 22105AW  25273.67646946  .00048971  00000+0  29559-2 0  9992
2 53692  97.6361 154.8687 0004247  67.4096 292.7583 15.10530092169319
STARLINK-4566           
1 53693U 22105AX  25274.19872209  .00000124  00000+0  13050-4 0  9993
2 53693  97.6022 154.1084 0002461  86.8277 273.3231 15.04831431169319
STARLINK-4725           
1 53700U 22107A   25274.08114120 -.00001565  00000+0 -80250-4 0  9991
2 53700  53.2176 240.2592 0001742  85.7534 274.3657 15.08843930170767
STARLINK-4711           
1 53701U 22107B   25274.07745308 -.00000706  00000+0 -26281-4 0  9999
2 53701  53.2173 240.2392 0001523 107.2138 252.9021 15.08826583170762
STARLINK-4724           
1 53702U 22107C   25273.57286253 -.00001074  00000+0 -49431-4 0  9994
2 53702  53.2143 227.8163 0001245  97.0294 263.0840 15.08838064170924
STARLINK-4731           
1 53703U 22107D   25274.09217328 -.00006304  00000+0 -37829-3 0  9998
2 53703  53.2158 240.3207 0001599 101.7394 258.3777 15.08845275170766
STARLINK-4714           
1 53704U 22107E   25274.07385281 -.00001224  00000+0 -58819-4 0  9990
2 53704  53.2162 240.9179 0001441  90.0954 270.0203 15.08830534170592
STARLINK-4717           
1 53705U 22107F   25273.34152252 -.00002098  00000+0 -11372-3 0  9992
2 53705  53.2154 244.1673 0001287  89.9692 270.1448 15.08858709170645
STARLINK-4716           
1 53706U 22107G   25274.05542431  .00002531  00000+0  17705-3 0  9990
2 53706  53.2142 240.8045 0001542 103.3602 256.7562 15.08835067170756
STARLINK-4667           
1 53707U 22107H   25274.18007037 -.00005545  00000+0 -33073-3 0  9999
2 53707  53.2148 225.1999 0001200  90.7650 269.3479 15.08825685170987
STARLINK-4694           
1 53708U 22107J   25274.09909983 -.00002120  00000+0 -11511-3 0  9990
2 53708  53.2167 225.4173 0001468  92.8880 267.2280 15.08848570170974
STARLINK-4685           
1 53709U 22107K   25274.21866340  .00001554  00000+0  11567-3 0  9993
2 53709  53.2160 244.7058 0001293  88.2246 271.8895 15.08851657170406
STARLINK-4627           
1 53711U 22107M   25274.09726069 -.00000913  00000+0 -39283-4 0  9991
2 53711  53.2173 245.3617 0001532  89.5606 270.5561 15.08827931170382
STARLINK-4683           
1 53712U 22107N   25274.07145549 -.00000208  00000+0  50371-5 0  9996
2 53712  53.2161 245.2185 0001405  98.8356 261.2795 15.08839782170409
STARLINK-4686           
1 53715U 22107R   25274.22374002 -.00000890  00000+0 -37827-4 0  9992
2 53715  53.2148 249.7042 0001502  79.0233 281.0928 15.08837817170349
STARLINK-4699           
1 53716U 22107S   25274.22005528 -.00000232  00000+0  35365-5 0  9992
2 53716  53.2155 249.6828 0001393  85.0422 275.0729 15.08837486170337
STARLINK-4695           
1 53718U 22107U   25274.07756685 -.00000782  00000+0 -31050-4 0  9991
2 53718  53.2160 250.9121 0001421  88.1434 271.9721 15.08834629170305
